HAWK-12A                
1 64623U 25138C   26188.40715950  .00003196  00000+0  15842-3 0  9997
2 64623  97.4413 190.8482 0015566  71.1121 289.1800 15.18366663 56935
HAWK-13A                
1 67392U 26004AF  26188.41513801  .00003427  00000+0  16553-3 0  9995
2 67392  97.4444 186.9974 0003664 256.9886 103.0940 15.19316377 26837
HAWK-13C                
1 67393U 26004AG  26187.95396109  .00003580  00000+0  17278-3 0  9999
2 67393  97.4590 186.9513 0003530 264.1663  95.9169 15.19313553 26762
HAWK-13B                
1 67396U 26004AK  26187.95386795  .00003512  00000+0  16956-3 0  9999
2 67396  97.4530 186.7808 0004804 262.5519  97.5169 15.19312731 26766
HAWK-14B                
1 68436U 26067W   26188.31637786  .00003073  00000+0  15275-3 0  9999
2 68436  97.4555 146.4780 0002421  22.8828 337.2513 15.18389450 14994
HAWK-14C                
1 68441U 26067AB  26188.31648270  .00002992  00000+0  14878-3 0  9992
2 68441  97.4492 146.3644 0003412  42.4872 317.6625 15.18391729 14994
HAWK-14A                
1 68448U 26067AJ  26188.31660652  .00003160  00000+0  15699-3 0  9997
2 68448  97.4617 146.5982 0004123  36.2207 323.9305 15.18387385 14998
