{"fetched_at":"2026-07-07T18:29:30.211Z","source":"https://celestrak.org/NORAD/elements/gp.php?NAME=HAWK&FORMAT=JSON","constellation":"hawkeye-360","records":[{"OBJECT_NAME":"HAWK-12A","OBJECT_ID":"2025-138C","EPOCH":"2026-07-07T09:46:18.580800","CLASSIFICATION_TYPE":"U","MEAN_MOTION":15.18366663,"ECCENTRICITY":0.0015566,"INCLINATION":97.4413,"RA_OF_ASC_NODE":190.8482,"ARG_OF_PERICENTER":71.1121,"MEAN_ANOMALY":289.18,"EPHEMERIS_TYPE":0,"NORAD_CAT_ID":64623,"ELEMENT_SET_NO":999,"REV_AT_EPOCH":5693,"BSTAR":0.00015842,"MEAN_MOTION_DOT":0.00003196,"MEAN_MOTION_DDOT":0},{"OBJECT_NAME":"HAWK-13A","OBJECT_ID":"2026-004AF","EPOCH":"2026-07-07T09:57:47.924064","CLASSIFICATION_TYPE":"U","MEAN_MOTION":15.19316377,"ECCENTRICITY":0.0003664,"INCLINATION":97.4444,"RA_OF_ASC_NODE":186.9974,"ARG_OF_PERICENTER":256.9886,"MEAN_ANOMALY":103.094,"EPHEMERIS_TYPE":0,"NORAD_CAT_ID":67392,"ELEMENT_SET_NO":999,"REV_AT_EPOCH":2683,"BSTAR":0.00016553,"MEAN_MOTION_DOT":0.00003427,"MEAN_MOTION_DDOT":0},{"OBJECT_NAME":"HAWK-13C","OBJECT_ID":"2026-004AG","EPOCH":"2026-07-06T22:53:42.238176","CLASSIFICATION_TYPE":"U","MEAN_MOTION":15.19313553,"ECCENTRICITY":0.000353,"INCLINATION":97.459,"RA_OF_ASC_NODE":186.9513,"ARG_OF_PERICENTER":264.1663,"MEAN_ANOMALY":95.9169,"EPHEMERIS_TYPE":0,"NORAD_CAT_ID":67393,"ELEMENT_SET_NO":999,"REV_AT_EPOCH":2676,"BSTAR":0.00017278,"MEAN_MOTION_DOT":0.0000358,"MEAN_MOTION_DDOT":0},{"OBJECT_NAME":"HAWK-13B","OBJECT_ID":"2026-004AK","EPOCH":"2026-07-06T22:53:34.190880","CLASSIFICATION_TYPE":"U","MEAN_MOTION":15.19312731,"ECCENTRICITY":0.0004804,"INCLINATION":97.453,"RA_OF_ASC_NODE":186.7808,"ARG_OF_PERICENTER":262.5519,"MEAN_ANOMALY":97.5169,"EPHEMERIS_TYPE":0,"NORAD_CAT_ID":67396,"ELEMENT_SET_NO":999,"REV_AT_EPOCH":2676,"BSTAR":0.00016956,"MEAN_MOTION_DOT":0.00003512,"MEAN_MOTION_DDOT":0},{"OBJECT_NAME":"HAWK-14B","OBJECT_ID":"2026-067W","EPOCH":"2026-07-07T07:35:35.047104","CLASSIFICATION_TYPE":"U","MEAN_MOTION":15.1838945,"ECCENTRICITY":0.0002421,"INCLINATION":97.4555,"RA_OF_ASC_NODE":146.478,"ARG_OF_PERICENTER":22.8828,"MEAN_ANOMALY":337.2513,"EPHEMERIS_TYPE":0,"NORAD_CAT_ID":68436,"ELEMENT_SET_NO":999,"REV_AT_EPOCH":1499,"BSTAR":0.00015275,"MEAN_MOTION_DOT":0.00003073,"MEAN_MOTION_DDOT":0},{"OBJECT_NAME":"HAWK-14C","OBJECT_ID":"2026-067AB","EPOCH":"2026-07-07T07:35:44.105280","CLASSIFICATION_TYPE":"U","MEAN_MOTION":15.18391729,"ECCENTRICITY":0.0003412,"INCLINATION":97.4492,"RA_OF_ASC_NODE":146.3644,"ARG_OF_PERICENTER":42.4872,"MEAN_ANOMALY":317.6625,"EPHEMERIS_TYPE":0,"NORAD_CAT_ID":68441,"ELEMENT_SET_NO":999,"REV_AT_EPOCH":1499,"BSTAR":0.00014878,"MEAN_MOTION_DOT":0.00002992,"MEAN_MOTION_DDOT":0},{"OBJECT_NAME":"HAWK-14A","OBJECT_ID":"2026-067AJ","EPOCH":"2026-07-07T07:35:54.803328","CLASSIFICATION_TYPE":"U","MEAN_MOTION":15.18387385,"ECCENTRICITY":0.0004123,"INCLINATION":97.4617,"RA_OF_ASC_NODE":146.5982,"ARG_OF_PERICENTER":36.2207,"MEAN_ANOMALY":323.9305,"EPHEMERIS_TYPE":0,"NORAD_CAT_ID":68448,"ELEMENT_SET_NO":999,"REV_AT_EPOCH":1499,"BSTAR":0.00015699,"MEAN_MOTION_DOT":0.0000316,"MEAN_MOTION_DDOT":0}]}
